STARLINK-37007
1 68302U 26057J   26090.83335647 -.01399795  58072-3 -35918-2 0  9993
2 68302  97.2779 214.2167 0001383  91.4855 128.6649 15.95333447  2824
